C/2021 R7 (PANSTARRS),e,158.8476,170.1429,140.2577,1052,0.0000289,0.99463153,0.0000,04/16.6437/2021,2000,g 10.5,4.0
# From MPEC 2021-Y10
P/2021 R8 (Sheppard),e,2.2034,167.0280,190.7768,3.017031,0.1880764,0.29361203,57.6545,08/10.0/2022,2000,g 18.5,4.0
# From MPEC 2022-OB6
P/2021 R9 (Sheppard-Tholen),e,7.4328,302.6954,97.5618,5.645725,0.0734724,0.18049046,359.3899,08/10.0/2022,2000,g 12.0,4.0
# From MPEC 2022-L66
C/2021 S1 (ATLAS),h,02/28.8713/2022,52.0839,299.8764,148.1792,1.001336,6.119202,2000,7.0,4.0
# From MPEC 2022-P82
C/2021 S3 (PANSTARRS),e,58.5359,215.6293,6.8940,9741,0.0000010,0.99986457,0.0000,02/14.7688/2024,2000,g  5.5,4.0
# From MPEC 2022-ED3
C/2021 S4 (Tsuchinshan),e,17.4775,5.4944,72.7494,164.1150,0.0004688,0.95922445,359.7614,08/10.0/2022,2000,g  6.5,4.0
# From MPEC 2022-OB6
C/2021 T1 (Lemmon),e,140.3513,56.8350,51.5184,1273,0.0000217,0.99759779,0.0000,10/14.0514/2021,2000,g 12.5,4.0
# From MPEC 2022-ED3
C/2021 T2 (Fuls),h,06/07.8926/2022,117.5302,223.2322,263.5932,1.000211,1.247707,2000,12.0,4.0
# From MPEC 2022-P82
C/2021 T4 (Lemmon),e,160.7575,257.8003,329.7799,236618,0.0000000,0.99999374,0.0000,07/31.5083/2023,2000,g  7.5,4.0
# From MPEC 2022-ED3
P/2021 U1 (Wierzchos),e,30.5578,246.7864,145.0671,8.515584,0.0396627,0.71284575,12.4131,08/10.0/2022,2000,g 14.5,4.0
# From MPEC 2022-L66
P/2021 U3 (Attard-Maury),e,69.9593,75.1090,335.2190,4.192033,0.1148331,0.54988144,33.2017,08/10.0/2022,2000,g 15.5,4.0
# From MPEC 2021-W31
C/2021 U4 (Leonard),e,152.8772,241.8130,237.2786,44.66958,0.0033013,0.95998595,0.7629,08/10.0/2022,2000,g 17.0,4.0
# From MPEC 2022-P82
C/2021 U5 (Catalina),e,39.0506,182.7550,321.4626,217.2292,0.0003078,0.98912139,0.0000,01/26.5933/2022,2000,g 13.0,4.0
# From MPEC 2022-CN4
C/2021 V1 (Rankin),e,71.4536,207.6534,195.1148,629.9168,0.0000623,0.99521610,0.0000,04/30.3989/2022,2000,g 13.0,4.0
# From MPEC 2022-HC2
P/2021 V2 (Fuls),e,12.6943,232.2882,259.8276,9.047722,0.0362156,0.61353592,354.0448,08/10.0/2022,2000,g 10.0,4.0
# From MPEC 2022-J42
C/2021 X1 (Maury-Attard),e,140.1213,10.5840,334.6166,38642,0.0000001,0.99991631,0.0000,05/27.4558/2023,2000,g  7.0,4.0
# From MPEC 2022-OB6
A/2021 X2,h,07/08.1641/2022,137.1464,228.7992,193.2867,1.001446,2.994541,2000,16.0,2.0
# From MPEC 2022-P82
C/2021 Y1 (ATLAS),h,04/30.7106/2023,77.1859,244.7700,245.8077,1.000748,2.032671,2000,7.0,4.0
# From MPEC 2022-ED3
C/2022 A1 (Sarneczky),e,116.5208,285.5245,201.1981,807.4187,0.0000430,0.99844825,0.0000,01/31.1503/2022,2000,g 18.0,4.0
# From MPEC 2022-M88
C/2022 A2 (PANSTARRS),h,02/18.2534/2023,108.1484,171.5801,88.3609,1.000516,1.735350,2000,9.5,4.0
# From MPEC 2022-M88
C/2022 A3 (Lemmon-ATLAS),e,88.3555,325.4835,234.8513,977.2971,0.0000323,0.99621080,0.0000,09/28.8281/2023,2000,g  8.0,4.0
# From MPEC 2022-K19
P/2022 B1 (Wierzchos),e,10.9907,148.8497,325.4779,5.465276,0.0771411,0.65296425,12.7795,08/10.0/2022,2000,g 16.5,4.0
# From MPEC 2022-K19
A/2022 B3,e,132.0549,286.1856,150.6940,909.2114,0.0000360,0.99593239,0.0000,01/17.6234/2022,2000,g 16.5,2.0
# From MPEC 2022-GA9
C/2022 B4 (Bok),e,20.0440,340.6607,152.9487,386.1621,0.0001299,0.99642756,0.0000,01/29.8902/2022,2000,g 21.0,4.0
# From MPEC 2022-H04
P/2022 C1 (PANSTARRS),e,4.7619,113.1447,9.3618,7.217600,0.0508294,0.44782551,14.1567,08/10.0/2022,2000,g 12.0,4.0
# From MPEC 2022-OB6
P/2022 C2 (PANSTARRS),e,9.9797,135.2719,89.3018,6.046776,0.0662855,0.44260918,0.2259,08/10.0/2022,2000,g 12.5,4.0
# From MPEC 2022-OB6
P/2022 C3 (PANSTARRS),e,12.8159,139.0585,93.9418,9.649706,0.0328801,0.54666883,1.3068,08/10.0/2022,2000,g 11.5,4.0
# From MPEC 2022-K19
P/2022 D1 (PANSTARRS),e,44.0678,47.9610,88.7032,7.401194,0.0489499,0.54705785,16.9839,08/10.0/2022,2000,g 12.5,4.0
# From MPEC 2022-K19
C/2022 D2 (Kowalski),e,22.6542,312.4679,177.7887,367.4514,0.0001399,0.99576785,0.0000,03/27.5721/2022,2000,g 17.0,4.0
# From MPEC 2022-L66
P/2022 E1 (Christensen),e,19.0039,113.3472,115.0926,3.781758,0.1340181,0.22116941,8.0948,08/10.0/2022,2000,g 13.5,4.0
# From MPEC 2022-O01
C/2022 E2 (ATLAS),h,09/13.7691/2024,137.1438,125.3542,41.6691,1.001487,3.666628,2000,5.0,4.0
# From MPEC 2022-P82
C/2022 E3 (ZTF),h,01/12.7861/2023,109.1686,302.5539,145.8147,1.000280,1.112250,2000,7.5,4.0
# From MPEC 2022-OB6
C/2022 F1 (ATLAS),h,08/05.4249/2022,57.9714,350.6560,278.2942,1.000101,5.974139,2000,7.0,4.0
# From MPEC 2022-L66
C/2022 F2 (NEOWISE),e,97.2937,58.6956,200.6285,23.91490,0.0084275,0.93372306,1.1760,08/10.0/2022,2000,g 14.5,4.0
# From MPEC 2022-P82
C/2022 H1 (PANSTARRS),e,49.8712,6.3682,246.2671,1083,0.0000276,0.99289834,0.0000,01/18.8396/2024,2000,g  6.0,4.0
# From MPEC 2022-P82
C/2022 J1 (Maury-Attard),e,105.9300,280.7230,305.6602,47.63122,0.0029982,0.96631985,0.5156,08/10.0/2022,2000,g 14.9,4.0
# From MPEC 2022-N37
C/2022 J2 (Bok),e,149.0910,252.5490,133.0980,90.49702,0.0011449,0.97981517,0.0000,10/27.1123/2022,2000,g 15.5,4.0
# From MPEC 2022-P82
C/2022 K1 (Leonard),h,12/17.3243/2021,41.9760,136.2940,142.6318,1.002897,3.986506,2000,11.0,4.0
# From MPEC 2022-P82
C/2022 L1 (Catalina),e,123.4680,300.0245,59.8550,522.7223,0.0000825,0.99695538,0.0000,09/28.2518/2022,2000,g 15.8,4.0
# From MPEC 2022-P82
C/2022 L2 (ATLAS),h,03/12.4857/2024,129.3118,39.2519,200.0068,1.000643,2.690276,2000,6.5,4.0
# From MPEC 2022-P82
P/2022 L3 (ATLAS),e,21.5426,29.7980,10.3838,6.498748,0.0594921,0.62775860,355.1748,08/10.0/2022,2000,g 16.5,4.0
# From MPEC 2022-N37
C/2022 L4 (PANSTARRS),e,141.2286,66.0496,125.3174,269.9735,0.0002222,0.98883250,0.0000,12/08.7118/2021,2000,g 14.0,4.0
# From MPEC 2022-P82
P/2022 M1 (PANSTARRS),e,7.0267,322.9212,4.4584,4.889303,0.0911662,0.57838692,0.6970,08/10.0/2022,2000,g 17.0,4.0
# From MPEC 2022-P82
C/2022 N1 (Attard-Maury),e,164.7420,301.8586,41.0589,37.52940,0.0042869,0.96051311,359.8670,08/10.0/2022,2000,g 16.9,4.0
# From MPEC 2022-P82
C/2022 N2 (PANSTARRS),h,08/01.5334/2025,5.4965,319.7637,75.2737,1.002366,3.834009,2000,6.0,4.0
# From  98, 1083
1P/Halley,e,162.1966,59.2029,112.1252,17.87126,0.0130458,0.96648563,173.7424,08/10.0/2022,2000,g  4.0,6.0
# From MPEC 2022-N07
2P/Encke,e,11.4489,334.2478,187.0814,2.219656,0.2980406,0.84807891,229.4841,08/10.0/2022,2000,g 11.5,6.0
# From MPEC 2022-P82
4P/Faye,e,8.0087,192.9256,207.0259,3.825379,0.1317323,0.57676418,44.1457,08/10.0/2022,2000,g  8.0,6.0
# From MPEC 2022-L66
6P/d'Arrest,e,19.5120,138.9343,178.0857,3.496967,0.1507185,0.61262417,49.1742,08/10.0/2022,2000,g  7.5,16.0
# From MPEC 2021-Y10
7P/Pons-Winnecke,e,22.3667,93.3417,172.5651,3.411355,0.1564277,0.63848700,68.8192,08/10.0/2022,2000,g 10.0,6.0
# From MPEC 2022-HC2
8P/Tuttle,e,54.9175,270.1974,207.4805,5.704609,0.0723378,0.82017384,25.1211,08/10.0/2022,2000,g  8.0,8.0
# From MPEC 2022-P82
9P/Tempel,e,10.4696,68.7100,179.3718,3.146709,0.1765709,0.50921915,27.9019,08/10.0/2022,2000,g  5.5,10.0
# From MPEC 2022-HC2
10P/Tempel,e,12.0381,117.8124,195.5132,3.061144,0.1840257,0.53833826,92.7116,08/10.0/2022,2000,g  5.0,10.0
# From MPEC 2022-K19
11P/Tempel-Swift-LINEAR,e,14.4249,238.8828,167.9751,3.283812,0.1656291,0.57733731,102.9524,08/10.0/2022,2000,g 17.0,4.0
# From MPEC 2022-P82
12P/Pons-Brooks,e,74.1718,255.8213,198.9806,17.17013,0.0138530,0.95448190,351.4082,08/10.0/2022,2000,g  9.0,4.0
# From  27, 604
13P/Olbers,e,44.6167,85.9438,64.3873,16.78783,0.0143289,0.92999624,350.0983,08/10.0/2022,2000,g  5.0,6.0
# From MPEC 2021-F20
14P/Wolf,e,27.9249,202.0415,159.0777,4.258154,0.1121688,0.35719434,191.8040,08/10.0/2022,2000,g  5.5,12.0
# From MPEC 2022-ED3
15P/Finlay,e,6.7980,13.7088,347.8539,3.507350,0.1500498,0.71706406,58.8954,08/10.0/2022,2000,g 12.0,4.0
# From MPEC 2022-C56
16P/Brooks,e,3.0116,138.8696,245.2242,3.658019,0.1408754,0.48642813,67.4269,08/10.0/2022,2000,g  7.5,10.0
# From MPEC 2022-ED3
17P/Holmes,e,19.0309,326.6241,24.5307,3.636992,0.1420989,0.42760024,76.1737,08/10.0/2022,2000,g 10.0,6.0
# From MPEC 2022-P82
19P/Borrelly,e,29.3041,74.2430,351.9238,3.605823,0.1439453,0.63772816,27.2297,08/10.0/2022,2000,g  4.5,10.0
# From MPEC 2021-F20
21P/Giacobini-Zinner,e,32.0563,195.3449,172.8799,3.495177,0.1508344,0.71122367,215.4604,08/10.0/2022,2000,g 11.4,4.0
# From MPEC 2022-P82
22P/Kopff,e,4.7418,120.8270,163.0340,3.442006,0.1543429,0.54899180,22.3566,08/10.0/2022,2000,g  3.0,10.4
# From MPC 14747
23P/Brorsen-Metcalf,e,19.1893,312.2019,128.9978,16.94511,0.0141298,0.97186459,0.0000,08/06.2386/1989,2000,g 10.0,6.0
# From MPC110085
24P/Schaumasse,e,11.5084,78.3879,58.4091,4.054667,0.1207178,0.70773121,209.3200,08/10.0/2022,2000,g  6.5,14.0
# From MPEC 2022-K19
26P/Grigg-Skjellerup,e,22.4320,211.5388,2.1546,3.014967,0.1882696,0.64035193,265.4017,08/10.0/2022,2000,g 12.0,16.0
# From MPC 78188
27P/Crommelin,e,29.3091,250.6467,195.8836,9.181930,0.0354245,0.91874779,142.9485,08/10.0/2022,2000,g 12.0,8.0
# From MPEC 2022-F14
28P/Neujmin,e,14.3120,346.3331,347.4442,6.979110,0.0534569,0.77370432,27.5909,08/10.0/2022,2000,g  8.5,6.0
# From MPEC 2022-P82
29P/Schwassmann-Wachmann,e,9.3653,312.3891,50.4504,6.044994,0.0663148,0.04482614,80.5346,08/10.0/2022,2000,g  4.0,4.0
# From MPEC 2022-K19
30P/Reinmuth,e,8.0895,117.7475,9.5094,3.722715,0.1372191,0.51770848,258.8026,08/10.0/2022,2000,g  9.5,6.0
# From MPEC 2021-F20
31P/Schwassmann-Wachmann,e,4.5478,114.1061,17.9654,4.236393,0.1130342,0.19219233,128.1025,08/10.0/2022,2000,g 13.1,4.0
# From MPEC 2022-K19
32P/ComasSola,e,9.8877,54.8546,54.8921,4.540804,0.1018603,0.55772306,296.9067,08/10.0/2022,2000,g  6.5,8.0
# From MPEC 2013-O31
33P/Daniel,e,22.2952,66.3054,20.4811,4.087296,0.1192751,0.45169089,261.6162,08/10.0/2022,2000,g 10.0,12.0
# From  15, 452
35P/Herschel-Rigollet,e,65.288,356.741,28.958,28.5509,0.006461,0.9742424,0.000,01/27.5587/2092,2000,g  9.0,4.0
# From MPEC 2022-ED3
36P/Whipple,e,9.9527,181.8412,200.9804,4.136058,0.1171721,0.26910641,93.6634,08/10.0/2022,2000,g  8.5,6.0
# From MPEC 2021-F20
37P/Forbes,e,8.9540,314.5664,330.1155,3.461254,0.1530572,0.53330254,238.6164,08/10.0/2022,2000,g 13.8,4.0
# From MPEC 2018-S50
